STARLINK-37518          
1 69259U 26117X   26159.50002315 -.01983645  11204-2 -46786-2 0  9998
2 69259  53.1556 286.6634 0001120  49.0480  68.0700 15.96299130  2774
STARLINK-37478          
1 69260U 26117Y   26159.50002315 -.01056935  35108-3 -25521-2 0  9997
2 69260  53.1558 286.6706 0001105  64.5853  49.1212 15.95722055  2771
STARLINK-37506          
1 69261U 26117Z   26159.50002315 -.00663075  15179-3 -16072-2 0  9993
2 69261  53.1554 286.6612 0001046  64.3937  53.7531 15.95569336  2775
STARLINK-37503          
1 69262U 26117AA  26159.50002315 -.00437319  73576-4 -11103-2 0  9990
2 69262  53.1557 286.6516 0000935  56.5507  65.8999 15.94640723  2775
STARLINK-37502          
1 69263U 26117AB  26159.50002315 -.00652504  14711-3 -16061-2 0  9999
2 69263  53.1555 286.6464 0000998  62.6428  62.1001 15.95282706  2773
STARLINK-37486          
1 69264U 26117AC  26159.50002315 -.01197081  43919-3 -29266-2 0  9998
2 69264  53.1552 286.6340 0001023  66.5035  64.3704 15.95518094  2777
STARLINK-37435          
1 69265U 26117AD  26159.50002315 -.01982633  11020-2 -50610-2 0  9998
2 69265  53.1554 286.6100 0001056  56.5802  85.3358 15.94837381  2771
STARLINK-37464          
1 69266U 26117AE  26159.50002315 -.02211749  13565-2 -56133-2 0  9995
2 69266  53.1553 286.5866 0001103  60.9896  92.1669 15.94970209  2772
KUIPER-00282            
1 69267U 26118A   26159.50002315 -.00002904  00000+0 -72783-4 0  9994
2 69267  51.8584  95.4141 0012030 150.6703 231.3590 15.35022371  2021
KUIPER-00383            
1 69268U 26118B   26159.50002315 -.00282622  00000+0 -84097-2 0  9991
2 69268  51.8586  95.3840 0010387 150.8994 245.8455 15.35249912  2084
KUIPER-00527            
1 69269U 26118C   26159.50002315 -.00010024  00000+0 -27210-3 0  9992
2 69269  51.8614  95.3602 0009708 144.7210 264.1386 15.35828554  1307
KUIPER-00562            
1 69270U 26118D   26159.50002315 -.00008285  00000+0 -20492-3 0  9995
2 69270  51.8718  95.1914 0002001  89.8295  36.5887 15.38454103  2619
KUIPER-00570            
1 69271U 26118E   26159.50002315 -.00011414  00000+0 -31590-3 0  9995
2 69271  51.8571  95.3839 0011649 153.5014 243.1912 15.35361464  2205
KUIPER-00572            
1 69272U 26118F   26159.50002315 -.00010509  00000+0 -27700-3 0  9998
2 69272  51.8671  95.3155 0007277 140.0418 290.6077 15.36813202  1952
KUIPER-00581            
1 69273U 26118G   26159.50002315 -.00010059  00000+0 -26730-3 0  9991
2 69273  51.8651  95.3384 0008860 144.6760 275.0472 15.36494116  2747
KUIPER-00584            
1 69274U 26118H   26159.50002315 -.00013983  00000+0 -39048-3 0  9997
2 69274  51.8599  95.4044 0011172 157.2988 229.6294 15.35300242  1308
KUIPER-00587            
1 69275U 26118J   26159.50002315 -.00010895  00000+0 -29080-3 0  9992
2 69275  51.8624  95.3323 0008297 146.5747 276.1397 15.36464261  1309
KUIPER-00590            
1 69276U 26118K   26159.50002315 -.00008858  00000+0 -22529-3 0  9990
2 69276  51.8685  95.2531 0004297 126.0983 334.7515 15.37697325  2504
KUIPER-00592            
1 69277U 26118L   26159.50002315 -.00009238  00000+0 -23376-3 0  9995
2 69277  51.8706  95.2359 0003725 104.9354   3.0553 15.37917143  1307
KUIPER-00593            
1 69278U 26118M   26159.50002315 -.00009041  00000+0 -22929-3 0  9991
2 69278  51.8711  95.2371 0004011 122.5643 344.1690 15.37817770  2716
KUIPER-00594            
1 69279U 26118N   26159.50002315 -.00006633  00000+0 -16217-3 0  9999
2 69279  51.8715  95.1828 0001178  56.3760  76.1595 15.38422385  1307
KUIPER-00595            
1 69280U 26118P   26159.50002315 -.00008856  00000+0 -22080-3 0  9995
2 69280  51.8709  95.2032 0001945 102.8847  20.8082 15.38314605  2689
KUIPER-00596            
1 69281U 26118Q   26159.50002315 -.00011959  00000+0 -32851-3 0  9991
2 69281  51.8547  95.3920 0011936 152.7955 239.1615 15.35640255  1958
KUIPER-00597            
1 69282U 26118R   26159.50002315 -.00010492  00000+0 -27601-3 0  9990
2 69282  51.8647  95.2999 0007140 137.8080 300.8940 15.36872620  1300
KUIPER-00599            
1 69283U 26118S   26159.50002315 -.00009995  00000+0 -25984-3 0  9999
2 69283  51.8689  95.2867 0006281 132.6023 311.6456 15.37182646  1750
KUIPER-00600            
1 69284U 26118T   26159.50002315 -.00010613  00000+0 -28181-3 0  9991
2 69284  51.8638  95.3281 0008915 140.9187 283.8790 15.36581914  2533
KUIPER-00601            
1 69285U 26118U   26159.50002315 -.00009795  00000+0 -25180-3 0  9997
2 69285  51.8702  95.2646 0004817 125.3299 328.9548 15.37509124  2567
KUIPER-00602            
1 69286U 26118V   26159.50002315 -.00009368  00000+0 -23701-3 0  9991
2 69286  51.8699  95.2305 0003122 112.3457 358.9275 15.37945601  1300
KUIPER-00603            
1 69287U 26118W   26159.50002315 -.00008394  00000+0 -21523-3 0  9990
2 69287  51.8669  95.2754 0005573 128.2150 322.2410 15.37362247  2512
KUIPER-00605            
1 69288U 26118X   26159.50002315 -.00009915  00000+0 -25985-3 0  9997
2 69288  51.8659  95.3092 0007660 134.3020 299.6489 15.36910448  2357
