OBJECT_NAME,OBJECT_ID,EPOCH,MEAN_MOTION,ECCENTRICITY,INCLINATION,RA_OF_ASC_NODE,ARG_OF_PERICENTER,MEAN_ANOMALY,EPHEMERIS_TYPE,CLASSIFICATION_TYPE,NORAD_CAT_ID,ELEMENT_SET_NO,REV_AT_EPOCH,BSTAR,MEAN_MOTION_DOT,MEAN_MOTION_DDOT
STARLINK-37518,2026-117X,2026-06-08T12:00:02.000160,15.96299130,.000112,53.1556,286.6634,49.0480,68.0700,0,U,69259,999,277,-.46786E-2,-.1983645E-1,.11204E-2
STARLINK-37478,2026-117Y,2026-06-08T12:00:02.000160,15.95722055,.0001105,53.1558,286.6706,64.5853,49.1212,0,U,69260,999,277,-.25521E-2,-.1056935E-1,.35108E-3
STARLINK-37506,2026-117Z,2026-06-08T12:00:02.000160,15.95569336,.0001046,53.1554,286.6612,64.3937,53.7531,0,U,69261,999,277,-.16072E-2,-.663075E-2,.15179E-3
STARLINK-37503,2026-117AA,2026-06-08T12:00:02.000160,15.94640723,.0000935,53.1557,286.6516,56.5507,65.8999,0,U,69262,999,277,-.11103E-2,-.437319E-2,.73576E-4
STARLINK-37502,2026-117AB,2026-06-08T12:00:02.000160,15.95282706,.0000998,53.1555,286.6464,62.6428,62.1001,0,U,69263,999,277,-.16061E-2,-.652504E-2,.14711E-3
STARLINK-37486,2026-117AC,2026-06-08T12:00:02.000160,15.95518094,.0001023,53.1552,286.6340,66.5035,64.3704,0,U,69264,999,277,-.29266E-2,-.1197081E-1,.43919E-3
STARLINK-37435,2026-117AD,2026-06-08T12:00:02.000160,15.94837381,.0001056,53.1554,286.6100,56.5802,85.3358,0,U,69265,999,277,-.5061E-2,-.1982633E-1,.1102E-2
STARLINK-37464,2026-117AE,2026-06-08T12:00:02.000160,15.94970209,.0001103,53.1553,286.5866,60.9896,92.1669,0,U,69266,999,277,-.56133E-2,-.2211749E-1,.13565E-2
KUIPER-00282,2026-118A,2026-06-08T12:00:02.000160,15.35022371,.001203,51.8584,95.4141,150.6703,231.3590,0,U,69267,999,202,-.72783E-4,-.2904E-4,0
KUIPER-00383,2026-118B,2026-06-08T12:00:02.000160,15.35249912,.0010387,51.8586,95.3840,150.8994,245.8455,0,U,69268,999,208,-.84097E-2,-.282622E-2,0
KUIPER-00527,2026-118C,2026-06-08T12:00:02.000160,15.35828554,.0009708,51.8614,95.3602,144.7210,264.1386,0,U,69269,999,130,-.2721E-3,-.10024E-3,0
KUIPER-00562,2026-118D,2026-06-08T12:00:02.000160,15.38454103,.0002001,51.8718,95.1914,89.8295,36.5887,0,U,69270,999,261,-.20492E-3,-.8285E-4,0
KUIPER-00570,2026-118E,2026-06-08T12:00:02.000160,15.35361464,.0011649,51.8571,95.3839,153.5014,243.1912,0,U,69271,999,220,-.3159E-3,-.11414E-3,0
KUIPER-00572,2026-118F,2026-06-08T12:00:02.000160,15.36813202,.0007277,51.8671,95.3155,140.0418,290.6077,0,U,69272,999,195,-.277E-3,-.10509E-3,0
KUIPER-00581,2026-118G,2026-06-08T12:00:02.000160,15.36494116,.000886,51.8651,95.3384,144.6760,275.0472,0,U,69273,999,274,-.2673E-3,-.10059E-3,0
KUIPER-00584,2026-118H,2026-06-08T12:00:02.000160,15.35300242,.0011172,51.8599,95.4044,157.2988,229.6294,0,U,69274,999,130,-.39048E-3,-.13983E-3,0
KUIPER-00587,2026-118J,2026-06-08T12:00:02.000160,15.36464261,.0008297,51.8624,95.3323,146.5747,276.1397,0,U,69275,999,130,-.2908E-3,-.10895E-3,0
KUIPER-00590,2026-118K,2026-06-08T12:00:02.000160,15.37697325,.0004297,51.8685,95.2531,126.0983,334.7515,0,U,69276,999,250,-.22529E-3,-.8858E-4,0
KUIPER-00592,2026-118L,2026-06-08T12:00:02.000160,15.37917143,.0003725,51.8706,95.2359,104.9354,3.0553,0,U,69277,999,130,-.23376E-3,-.9238E-4,0
KUIPER-00593,2026-118M,2026-06-08T12:00:02.000160,15.37817770,.0004011,51.8711,95.2371,122.5643,344.1690,0,U,69278,999,271,-.22929E-3,-.9041E-4,0
KUIPER-00594,2026-118N,2026-06-08T12:00:02.000160,15.38422385,.0001178,51.8715,95.1828,56.3760,76.1595,0,U,69279,999,130,-.16217E-3,-.6633E-4,0
KUIPER-00595,2026-118P,2026-06-08T12:00:02.000160,15.38314605,.0001945,51.8709,95.2032,102.8847,20.8082,0,U,69280,999,268,-.2208E-3,-.8856E-4,0
KUIPER-00596,2026-118Q,2026-06-08T12:00:02.000160,15.35640255,.0011936,51.8547,95.3920,152.7955,239.1615,0,U,69281,999,195,-.32851E-3,-.11959E-3,0
KUIPER-00597,2026-118R,2026-06-08T12:00:02.000160,15.36872620,.000714,51.8647,95.2999,137.8080,300.8940,0,U,69282,999,130,-.27601E-3,-.10492E-3,0
KUIPER-00599,2026-118S,2026-06-08T12:00:02.000160,15.37182646,.0006281,51.8689,95.2867,132.6023,311.6456,0,U,69283,999,175,-.25984E-3,-.9995E-4,0
KUIPER-00600,2026-118T,2026-06-08T12:00:02.000160,15.36581914,.0008915,51.8638,95.3281,140.9187,283.8790,0,U,69284,999,253,-.28181E-3,-.10613E-3,0
KUIPER-00601,2026-118U,2026-06-08T12:00:02.000160,15.37509124,.0004817,51.8702,95.2646,125.3299,328.9548,0,U,69285,999,256,-.2518E-3,-.9795E-4,0
KUIPER-00602,2026-118V,2026-06-08T12:00:02.000160,15.37945601,.0003122,51.8699,95.2305,112.3457,358.9275,0,U,69286,999,130,-.23701E-3,-.9368E-4,0
KUIPER-00603,2026-118W,2026-06-08T12:00:02.000160,15.37362247,.0005573,51.8669,95.2754,128.2150,322.2410,0,U,69287,999,251,-.21523E-3,-.8394E-4,0
KUIPER-00605,2026-118X,2026-06-08T12:00:02.000160,15.36910448,.000766,51.8659,95.3092,134.3020,299.6489,0,U,69288,999,235,-.25985E-3,-.9915E-4,0
